$$SOE
2460154.500000000, A.D. 2023-Jul-29 00:00:00.0000, 2.075631189017898E+08, 4.843285807765494E+08, 4.676242079624203E+07,
2460161.500000000, A.D. 2023-Aug-05 00:00:00.0000, 1.988519697464927E+08, 4.875740762149165E+08, 4.829788267777127E+07,
2460168.500000000, A.D. 2023-Aug-12 00:00:00.0000, 1.900756749482085E+08, 4.906594044700903E+08, 4.981745534847036E+07,
2460175.500000000, A.D. 2023-Aug-19 00:00:00.0000, 1.812370283496217E+08, 4.935833404438688E+08, 5.132061845807317E+07,
2460182.500000000, A.D. 2023-Aug-26 00:00:00.0000, 1.723388502027540E+08, 4.963447033572800E+08, 5.280685514906433E+07,
2460189.500000000, A.D. 2023-Sep-02 00:00:00.0000, 1.633839866125023E+08, 4.989423573014861E+08, 5.427565220020488E+07,
2460196.500000000, A.D. 2023-Sep-09 00:00:00.0000, 1.543753089825068E+08, 5.013752116766773E+08, 5.572650016012821E+07,
2460203.500000000, A.D. 2023-Sep-16 00:00:00.0000, 1.453157136312978E+08, 5.036422214609820E+08, 5.715889345093688E+07,
2460210.500000000, A.D. 2023-Sep-23 00:00:00.0000, 1.362081219947281E+08, 5.057423875965373E+08, 5.857233042724043E+07,
2460217.500000000, A.D. 2023-Sep-30 00:00:00.0000, 1.270554810752890E+08, 5.076747586839491E+08, 5.996631351931870E+07,
2460224.500000000, A.D. 2023-Oct-07 00:00:00.0000, 1.178607617849007E+08, 5.094384334414150E+08, 6.134034963196439E+07,
2460231.500000000, A.D. 2023-Oct-14 00:00:00.0000, 1.086269562199436E+08, 5.110325606139907E+08, 6.269395043292913E+07,
2460238.500000000, A.D. 2023-Oct-21 00:00:00.0000, 9.935707709656745E+07, 5.124563379366718E+08, 6.402663236626983E+07,
2460245.500000000, A.D. 2023-Oct-28 00:00:00.0000, 9.005415792278263E+07, 5.137090124113483E+08, 6.533791670611948E+07,
2460252.500000000, A.D. 2023-Nov-04 00:00:00.0000, 8.072125265715516E+07, 5.147898811254395E+08, 6.662732970248982E+07,
2460259.500000000, A.D. 2023-Nov-11 00:00:00.0000, 7.136143503059155E+07, 5.156982920109088E+08, 6.789440275380737E+07,
2460266.500000000, A.D. 2023-Nov-18 00:00:00.0000, 6.197779774946668E+07, 5.164336444788129E+08, 6.913867258099636E+07,
2460273.500000000, A.D. 2023-Nov-25 00:00:00.0000, 5.257345165195244E+07, 5.169953899521448E+08, 7.035968139864033E+07,
2460280.500000000, A.D. 2023-Dec-02 00:00:00.0000, 4.315152484531196E+07, 5.173830322863030E+08, 7.155697708013716E+07,
2460287.500000000, A.D. 2023-Dec-09 00:00:00.0000, 3.371516190204421E+07, 5.175961280185843E+08, 7.273011330519095E+07,
2460294.500000000, A.D. 2023-Dec-16 00:00:00.0000, 2.426752340258921E+07, 5.176342864591171E+08, 7.387864966438392E+07,
2460301.500000000, A.D. 2023-Dec-23 00:00:00.0000, 1.481178617305848E+07, 5.174971703104045E+08, 7.500215174497312E+07,
2460308.500000000, A.D. 2023-Dec-30 00:00:00.0000, 5.351142878056544E+06, 5.171844978643875E+08, 7.610019140635431E+07,
2460315.500000000, A.D. 2024-Jan-06 00:00:00.0000, -4.111200803600234E+06, 5.166960444142969E+08, 7.717234721419579E+07,
2460322.500000000, A.D. 2024-Jan-13 00:00:00.0000, -1.357202824915610E+07, 5.160316410723405E+08, 7.821820459402877E+07,
2460329.500000000, A.D. 2024-Jan-20 00:00:00.0000, -2.302811198596733E+07, 5.151911740786902E+08, 7.923735584418097E+07,
2460336.500000000, A.D. 2024-Jan-27 00:00:00.0000, -3.247621383785024E+07, 5.141745852543874E+08, 8.022940024728513E+07,
2460343.500000000, A.D. 2024-Feb-03 00:00:00.0000, -4.191308555212595E+07, 5.129818726487584E+08, 8.119394424181694E+07,
2460350.500000000, A.D. 2024-Feb-10 00:00:00.0000, -5.133546963029844E+07, 5.116130910895637E+08, 8.213060160420641E+07,
2460357.500000000, A.D. 2024-Feb-17 00:00:00.0000, -6.074010022386573E+07, 5.100683526433076E+08, 8.303899362927535E+07,
2460364.500000000, A.D. 2024-Feb-24 00:00:00.0000, -7.012370405943316E+07, 5.083478269999304E+08, 8.391874930673596E+07,
2460371.500000000, A.D. 2024-Mar-02 00:00:00.0000, -7.948300136386801E+07, 5.064517417486719E+08, 8.476950548821998E+07,
2460378.500000000, A.D. 2024-Mar-09 00:00:00.0000, -8.881470665082778E+07, 5.043803824814378E+08, 8.559090702677846E+07,
2460385.500000000, A.D. 2024-Mar-16 00:00:00.0000, -9.811552897366047E+07, 5.021340929201525E+08, 8.638260686857066E+07,
2460392.500000000, A.D. 2024-Mar-23 00:00:00.0000, -1.073821717486733E+08, 4.997132761768551E+08, 8.714426619685084E+07,
2460399.500000000, A.D. 2024-Mar-30 00:00:00.0000, -1.166113343896141E+08, 4.971183971197312E+08, 8.787555483160686E+07,
2460406.500000000, A.D. 2024-Apr-06 00:00:00.0000, -1.257997154964865E+08, 4.943499824755312E+08, 8.857615158568692E+07,
2460413.500000000, A.D. 2024-Apr-13 00:00:00.0000, -1.349440140485829E+08, 4.914086195026999E+08, 8.924574431977126E+07,
2460420.500000000, A.D. 2024-Apr-20 00:00:00.0000, -1.440409295548188E+08, 4.882949559124001E+08, 8.988403000253499E+07,
2460427.500000000, A.D. 2024-Apr-27 00:00:00.0000, -1.530871626779419E+08, 4.850097004759835E+08, 9.049071486927542E+07,
2460434.500000000, A.D. 2024-May-04 00:00:00.0000, -1.620794162444133E+08, 4.815536236144349E+08, 9.106551461329520E+07,
2460441.500000000, A.D. 2024-May-11 00:00:00.0000, -1.710143964017005E+08, 4.779275578670997E+08, 9.160815457979962E+07,
2460448.500000000, A.D. 2024-May-18 00:00:00.0000, -1.798888138411178E+08, 4.741323982607371E+08, 9.211836995659542E+07,
2460455.500000000, A.D. 2024-May-25 00:00:00.0000, -1.886993850615704E+08, 4.701691025713500E+08, 9.259590595884305E+07,
2460462.500000000, A.D. 2024-Jun-01 00:00:00.0000, -1.974428336143536E+08, 4.660386914209903E+08, 9.304051799783242E+07,
2460469.500000000, A.D. 2024-Jun-08 00:00:00.0000, -2.061158910825671E+08, 4.617422481861802E+08, 9.345197180948088E+07,
2460476.500000000, A.D. 2024-Jun-15 00:00:00.0000, -2.147152973955477E+08, 4.572809192626597E+08, 9.383004355066010E+07,
2460483.500000000, A.D. 2024-Jun-22 00:00:00.0000, -2.232378014834219E+08, 4.526559158616974E+08, 9.417452005186617E+07,
2460490.500000000, A.D. 2024-Jun-29 00:00:00.0000, -2.316801643921174E+08, 4.478685155172146E+08, 9.448519927208924E+07,
2460497.500000000, A.D. 2024-Jul-06 00:00:00.0000, -2.400391622116291E+08, 4.429200608300300E+08, 9.476189051064339E+07,
2460504.500000000, A.D. 2024-Jul-13 00:00:00.0000, -2.483115868683611E+08, 4.378119582701823E+08, 9.500441442741245E+07,
2460511.500000000, A.D. 2024-Jul-20 00:00:00.0000, -2.564942467681307E+08, 4.325456781852517E+08, 9.521260314755476E+07,
2460518.500000000, A.D. 2024-Jul-27 00:00:00.0000, -2.645839679459428E+08, 4.271227550546177E+08, 9.538630043239507E+07,
2460525.500000000, A.D. 2024-Aug-03 00:00:00.0000, -2.725775954497395E+08, 4.215447876140319E+08, 9.552536186079130E+07,
2460532.500000000, A.D. 2024-Aug-10 00:00:00.0000, -2.804719947923939E+08, 4.158134388459659E+08, 9.562965500540385E+07,
2460539.500000000, A.D. 2024-Aug-17 00:00:00.0000, -2.882640534241876E+08, 4.099304358576228E+08, 9.569905960116526E+07,
2460546.500000000, A.D. 2024-Aug-24 00:00:00.0000, -2.959506821970890E+08, 4.038975696243079E+08, 9.573346770122039E+07,
2460553.500000000, A.D. 2024-Aug-31 00:00:00.0000, -3.035288167041818E+08, 3.977166945362171E+08, 9.573278380417497E+07,
2460560.500000000, A.D. 2024-Sep-07 00:00:00.0000, -3.109954181277364E+08, 3.913897278741760E+08, 9.569692492883515E+07,
2460567.500000000, A.D. 2024-Sep-14 00:00:00.0000, -3.183474735100279E+08, 3.849186502092170E+08, 9.562582070944256E+07,
2460574.500000000, A.D. 2024-Sep-21 00:00:00.0000, -3.255819974755826E+08, 3.783055071382645E+08, 9.551941373090099E+07,
2460581.500000000, A.D. 2024-Sep-28 00:00:00.0000, -3.326960358911294E+08, 3.715524091283563E+08, 9.537765988458547E+07,
2460588.500000000, A.D. 2024-Oct-05 00:00:00.0000, -3.396866677911981E+08, 3.646615294691114E+08, 9.520052840741608E+07,
2460595.500000000, A.D. 2024-Oct-12 00:00:00.0000, -3.465510059296771E+08, 3.576351033114718E+08, 9.498800188033795E+07,
2460602.500000000, A.D. 2024-Oct-19 00:00:00.0000, -3.532861977084218E+08, 3.504754275219501E+08, 9.474007632470241E+07,
2460609.500000000, A.D. 2024-Oct-26 00:00:00.0000, -3.598894265141383E+08, 3.431848605509775E+08, 9.445676133385399E+07,
2460616.500000000, A.D. 2024-Nov-02 00:00:00.0000, -3.663579132047085E+08, 3.357658221663091E+08, 9.413808020387565E+07,
2460623.500000000, A.D. 2024-Nov-09 00:00:00.0000, -3.726889176470128E+08, 3.282207930714766E+08, 9.378407005604962E+07,
2460630.500000000, A.D. 2024-Nov-16 00:00:00.0000, -3.788797402790407E+08, 3.205523144089788E+08, 9.339478194845918E+07,
2460637.500000000, A.D. 2024-Nov-23 00:00:00.0000, -3.849277236480113E+08, 3.127629870978125E+08, 9.297028096815464E+07,
2460644.500000000, A.D. 2024-Nov-30 00:00:00.0000, -3.908302537147676E+08, 3.048554709621742E+08, 9.251064628110252E+07,
2460651.500000000, A.D. 2024-Dec-07 00:00:00.0000, -3.965847605035403E+08, 2.968324840712969E+08, 9.201597113563015E+07,
2460658.500000000, A.D. 2024-Dec-14 00:00:00.0000, -4.021887187846316E+08, 2.886968035136967E+08, 9.148636298245673E+07,
2460665.500000000, A.D. 2024-Dec-21 00:00:00.0000, -4.076396511081569E+08, 2.804512663651401E+08, 9.092194382274954E+07,
2460672.500000000, A.D. 2024-Dec-28 00:00:00.0000, -4.129351312146549E+08, 2.720987678836098E+08, 9.032285036084394E+07,
2460679.500000000, A.D. 2025-Jan-04 00:00:00.0000, -4.180727852222464E+08, 2.636422593061756E+08, 8.968923391716142E+07,
2460686.500000000, A.D. 2025-Jan-11 00:00:00.0000, -4.230502924105330E+08, 2.550847469060566E+08, 8.902126040395528E+07,
2460693.500000000, A.D. 2025-Jan-18 00:00:00.0000, -4.278653865178446E+08, 2.464292913912414E+08, 8.831911037326396E+07,
2460700.500000000, A.D. 2025-Jan-25 00:00:00.0000, -4.325158573069344E+08, 2.376790071705401E+08, 8.758297907616845E+07,
2460707.500000000, A.D. 2025-Feb-01 00:00:00.0000, -4.369995522077777E+08, 2.288370614569353E+08, 8.681307651357125E+07,
2460714.500000000, A.D. 2025-Feb-08 00:00:00.0000, -4.413143779772732E+08, 2.199066732278575E+08, 8.600962747476926E+07,
2460721.500000000, A.D. 2025-Feb-15 00:00:00.0000, -4.454583023451902E+08, 2.108911120224987E+08, 8.517287155950147E+07,
$$EOE